TIANMU-1 21             
1 58662U 23208C   26166.22686986  .00008104  00000+0  24059-3 0  9995
2 58662  97.4509 285.8216 0006086 332.2427  27.8490 15.35046887137264
TIANMU-1 22             
1 58663U 23208D   26166.24273782  .00006021  00000+0  20342-3 0  9991
2 58663  97.4504 282.4698 0003399  11.1309 349.0007 15.31034446137035
TIANMU-1 15             
1 58700U 24004A   26166.19828236  .00004813  00000+0  18431-3 0  9995
2 58700  97.4661 352.3883 0006903   9.6188 350.5181 15.27005569135470
TIANMU-1 16             
1 58701U 24004B   26166.18716059  .00004805  00000+0  18558-3 0  9995
2 58701  97.4607 351.6163 0006035  14.7909 345.3505 15.26730581135478
TIANMU-1 17             
1 58702U 24004C   26166.17261259  .00005012  00000+0  19348-3 0  9991
2 58702  97.4635 352.0859 0005717  21.0752 339.0721 15.26730697135467
TIANMU-1 18             
1 58703U 24004D   26166.21487253  .00004976  00000+0  19063-3 0  9993
2 58703  97.4653 352.3824 0004251  21.7527 338.3892 15.26988735135472
INSAT-3DS               
1 58990U 24033A   26165.99015009 -.00000151  00000+0  00000+0 0  9992
2 58990   0.0432 120.9528 0000981 312.8348 268.0485  1.00271552 47047
METEOR-M2 4             
1 59051U 24039A   26166.21385591 -.00000003  00000+0  18433-4 0  9999
2 59051  98.7010 125.5367 0007178 166.5197 193.6174 14.22429364118989
GOES 19                 
1 60133U 24119A   26166.17280541 -.00000244  00000+0  00000+0 0  9998
2 60133   0.0133  99.5769 0000367  87.4002  63.5048  1.00271887  6943
MTG-S1                  
1 64723U 25143A   26166.18704823 -.00000027  00000+0  00000+0 0  9999
2 64723   0.6050 338.4886 0000984  11.1132 337.7392  1.00271849  3396
METOP-SGA1              
1 65159U 25172A   26166.16790381  .00000042  00000+0  38873-4 0  9997
2 65159  98.6644 225.9324 0000912  92.7937 267.3345 14.21509481 43508
FENGYUN 3H              
1 65815U 25219A   26166.06800233  .00000037  00000+0  37909-4 0  9998
2 65815  98.6768 106.8783 0001587  77.6228 282.5126 14.19920114 37083
