OBJECT_NAME,OBJECT_ID,EPOCH,MEAN_MOTION,ECCENTRICITY,INCLINATION,RA_OF_ASC_NODE,ARG_OF_PERICENTER,MEAN_ANOMALY,EPHEMERIS_TYPE,CLASSIFICATION_TYPE,NORAD_CAT_ID,ELEMENT_SET_NO,REV_AT_EPOCH,BSTAR,MEAN_MOTION_DOT,MEAN_MOTION_DDOT
TIANMU-1 21,2023-208C,2026-06-15T05:26:41.555904,15.35046887,.0006086,97.4509,285.8216,332.2427,27.8490,0,U,58662,999,13726,.24059E-3,.8104E-4,0
TIANMU-1 22,2023-208D,2026-06-15T05:49:32.547648,15.31034446,.0003399,97.4504,282.4698,11.1309,349.0007,0,U,58663,999,13703,.20342E-3,.6021E-4,0
TIANMU-1 15,2024-004A,2026-06-15T04:45:31.595904,15.27005569,.0006903,97.4661,352.3883,9.6188,350.5181,0,U,58700,999,13547,.18431E-3,.4813E-4,0
TIANMU-1 16,2024-004B,2026-06-15T04:29:30.674976,15.26730581,.0006035,97.4607,351.6163,14.7909,345.3505,0,U,58701,999,13547,.18558E-3,.4805E-4,0
TIANMU-1 17,2024-004C,2026-06-15T04:08:33.727776,15.26730697,.0005717,97.4635,352.0859,21.0752,339.0721,0,U,58702,999,13546,.19348E-3,.5012E-4,0
TIANMU-1 18,2024-004D,2026-06-15T05:09:24.986592,15.26988735,.0004251,97.4653,352.3824,21.7527,338.3892,0,U,58703,999,13547,.19063E-3,.4976E-4,0
INSAT-3DS,2024-033A,2026-06-14T23:45:48.967776,1.00271552,.0000981,0.0432,120.9528,312.8348,268.0485,0,U,58990,999,4704,0,-.151E-5,0
METEOR-M2 4,2024-039A,2026-06-15T05:07:57.150624,14.22429364,.0007178,98.7010,125.5367,166.5197,193.6174,0,U,59051,999,11898,.18433E-4,-.3E-7,0
GOES 19,2024-119A,2026-06-15T04:08:50.387424,1.00271887,.0000367,0.0133,99.5769,87.4002,63.5048,0,U,60133,999,694,0,-.244E-5,0
MTG-S1,2025-143A,2026-06-15T04:29:20.967072,1.00271849,.0000984,0.6050,338.4886,11.1132,337.7392,0,U,64723,999,339,0,-.27E-6,0
METOP-SGA1,2025-172A,2026-06-15T04:01:46.889184,14.21509481,.0000912,98.6644,225.9324,92.7937,267.3345,0,U,65159,999,4350,.38873E-4,.42E-6,0
FENGYUN 3H,2025-219A,2026-06-15T01:37:55.401312,14.19920114,.0001587,98.6768,106.8783,77.6228,282.5126,0,U,65815,999,3708,.37909E-4,.37E-6,0
